; Surface constant-distance motion path
; Generated from STL height sampling. Dry-run before printing.
; Pattern: 矩形
; Clearance: 0.500 mm
; Motion: smoothed
; Points: 329
G21
G90
G1 X26.920 Y37.196 Z8.598 F2400
G1 X24.783 Y37.365 Z8.598 F1200
G1 X24.071 Y37.421 Z8.598 F1200
G1 X23.359 Y37.477 Z8.598 F1200
G1 X22.646 Y37.533 Z8.598 F1200
G1 X21.934 Y37.590 Z8.598 F1200
G1 X21.222 Y37.646 Z8.598 F1200
G1 X20.509 Y37.702 Z8.598 F1200
G1 X19.797 Y37.758 Z8.598 F1200
G1 X19.085 Y37.814 Z8.598 F1200
G1 X18.372 Y37.871 Z8.598 F1200
G1 X17.660 Y37.927 Z8.598 F1200
G1 X16.947 Y37.983 Z8.598 F1200
G1 X16.235 Y38.039 Z8.598 F1200
G1 X15.522 Y38.095 Z8.598 F1200
G1 X14.810 Y38.151 Z8.598 F1200
G1 X14.097 Y38.207 Z8.598 F1200
G1 X13.385 Y38.263 Z8.598 F1200
G1 X12.672 Y38.320 Z8.598 F1200
G1 X11.959 Y38.376 Z8.598 F1200
G1 X11.247 Y38.432 Z8.598 F1200
G1 X10.534 Y38.488 Z8.598 F1200
G1 X9.821 Y38.544 Z8.598 F1200
G1 X9.109 Y38.600 Z8.598 F1200
G1 X8.396 Y38.656 Z8.598 F1200
G1 X7.683 Y38.712 Z8.598 F1200
G1 X6.970 Y38.768 Z8.598 F1200
G1 X6.258 Y38.824 Z8.598 F1200
G1 X5.545 Y38.880 Z8.598 F1200
G1 X4.832 Y38.936 Z8.598 F1200
G1 X4.119 Y38.992 Z8.598 F1200
G1 X3.406 Y39.047 Z8.598 F1200
G1 X2.694 Y39.103 Z8.598 F1200
G1 X1.981 Y39.159 Z8.598 F1200
G1 X1.268 Y39.215 Z8.598 F1200
G1 X0.555 Y39.271 Z8.598 F1200
G1 X-0.158 Y39.327 Z8.598 F1200
G1 X-0.871 Y39.383 Z8.598 F1200
G1 X-1.583 Y39.438 Z8.598 F1200
G1 X-2.296 Y39.494 Z8.598 F1200
G1 X-3.009 Y39.550 Z8.598 F1200
G1 X-3.722 Y39.606 Z8.598 F1200
G1 X-4.435 Y39.662 Z8.598 F1200
G1 X-5.148 Y39.717 Z8.598 F1200
G1 X-5.861 Y39.773 Z8.598 F1200
G1 X-6.574 Y39.829 Z8.598 F1200
G1 X-7.287 Y39.885 Z8.598 F1200
G1 X-7.999 Y39.940 Z8.598 F1200
G1 X-8.712 Y39.996 Z8.598 F1200
G1 X-9.425 Y40.052 Z8.598 F1200
G1 X-10.138 Y40.107 Z8.598 F1200
G1 X-10.851 Y40.163 Z8.598 F1200
G1 X-11.564 Y40.219 Z8.598 F1200
G1 X-12.277 Y40.274 Z8.598 F1200
G1 X-12.990 Y40.330 Z8.598 F1200
G1 X-13.703 Y40.385 Z8.598 F1200
G1 X-14.415 Y40.441 Z8.598 F1200
G1 X-15.128 Y40.496 Z8.598 F1200
G1 X-15.841 Y40.552 Z8.598 F1200
G1 X-15.882 Y39.836 Z8.741 F1200
G1 X-15.923 Y39.121 Z8.884 F1200
G1 X-15.964 Y38.405 Z9.027 F1200
G1 X-16.005 Y37.692 Z9.168 F1200
G1 X-16.046 Y36.978 Z9.309 F1200
G1 X-16.087 Y36.264 Z9.451 F1200
G1 X-16.129 Y35.556 Z9.554 F1200
G1 X-16.172 Y34.848 Z9.657 F1200
G1 X-16.214 Y34.140 Z9.760 F1200
G1 X-16.256 Y33.434 Z9.859 F1200
G1 X-16.299 Y32.727 Z9.957 F1200
G1 X-16.341 Y32.021 Z10.055 F1200
G1 X-16.384 Y31.316 Z10.144 F1200
G1 X-16.427 Y30.612 Z10.233 F1200
G1 X-16.470 Y29.907 Z10.322 F1200
G1 X-16.514 Y29.206 Z10.384 F1200
G1 X-16.558 Y28.504 Z10.446 F1200
G1 X-16.602 Y27.803 Z10.508 F1200
G1 X-16.646 Y27.102 Z10.570 F1200
G1 X-16.690 Y26.402 Z10.632 F1200
G1 X-16.733 Y25.701 Z10.694 F1200
G1 X-16.778 Y25.003 Z10.731 F1200
G1 X-16.823 Y24.305 Z10.769 F1200
G1 X-16.868 Y23.606 Z10.806 F1200
G1 X-16.914 Y22.909 Z10.831 F1200
G1 X-16.959 Y22.212 Z10.856 F1200
G1 X-17.005 Y21.515 Z10.882 F1200
G1 X-17.050 Y20.818 Z10.906 F1200
G1 X-17.095 Y20.121 Z10.930 F1200
G1 X-17.141 Y19.424 Z10.954 F1200
G1 X-17.188 Y18.729 Z10.945 F1200
G1 X-17.235 Y18.034 Z10.936 F1200
G1 X-17.282 Y17.338 Z10.927 F1200
G1 X-17.329 Y16.643 Z10.919 F1200
G1 X-17.376 Y15.948 Z10.910 F1200
G1 X-17.423 Y15.252 Z10.901 F1200
G1 X-17.470 Y14.557 Z10.879 F1200
G1 X-17.518 Y13.862 Z10.857 F1200
G1 X-17.565 Y13.167 Z10.835 F1200
G1 X-17.614 Y12.472 Z10.793 F1200
G1 X-17.663 Y11.777 Z10.750 F1200
G1 X-17.711 Y11.082 Z10.708 F1200
G1 X-17.760 Y10.386 Z10.665 F1200
G1 X-17.808 Y9.691 Z10.623 F1200
G1 X-17.857 Y8.995 Z10.580 F1200
G1 X-17.906 Y8.299 Z10.523 F1200
G1 X-17.956 Y7.603 Z10.465 F1200
G1 X-18.005 Y6.907 Z10.408 F1200
G1 X-18.055 Y6.210 Z10.332 F1200
G1 X-18.106 Y5.513 Z10.257 F1200
G1 X-18.156 Y4.816 Z10.182 F1200
G1 X-18.206 Y4.118 Z10.106 F1200
G1 X-18.256 Y3.421 Z10.031 F1200
G1 X-18.307 Y2.723 Z9.956 F1200
G1 X-18.358 Y2.024 Z9.854 F1200
G1 X-18.410 Y1.325 Z9.753 F1200
G1 X-18.462 Y0.626 Z9.651 F1200
G1 X-18.514 Y-0.075 Z9.545 F1200
G1 X-18.566 Y-0.775 Z9.439 F1200
G1 X-18.618 Y-1.476 Z9.333 F1200
G1 X-18.670 Y-2.178 Z9.218 F1200
G1 X-18.723 Y-2.880 Z9.102 F1200
G1 X-18.775 Y-3.582 Z8.986 F1200
G1 X-18.829 Y-4.286 Z8.854 F1200
G1 X-18.883 Y-4.991 Z8.721 F1200
G1 X-18.936 Y-5.695 Z8.588 F1200
G1 X-18.990 Y-6.401 Z8.455 F1200
G1 X-19.043 Y-7.107 Z8.322 F1200
G1 X-19.097 Y-7.813 Z8.189 F1200
G1 X-19.151 Y-8.521 Z8.043 F1200
G1 X-19.206 Y-9.229 Z7.897 F1200
G1 X-19.260 Y-9.938 Z7.751 F1200
G1 X-19.316 Y-10.649 Z7.586 F1200
G1 X-19.371 Y-11.360 Z7.421 F1200
G1 X-19.427 Y-12.071 Z7.257 F1200
G1 X-19.482 Y-12.784 Z7.092 F1200
G1 X-19.538 Y-13.497 Z6.927 F1200
G1 X-19.594 Y-14.211 Z6.762 F1200
G1 X-19.650 Y-14.926 Z6.596 F1200
G1 X-19.705 Y-15.642 Z6.431 F1200
G1 X-19.761 Y-16.357 Z6.265 F1200
G1 X-19.818 Y-17.076 Z6.080 F1200
G1 X-19.875 Y-17.795 Z5.894 F1200
G1 X-19.932 Y-18.514 Z5.709 F1200
G1 X-19.990 Y-19.236 Z5.523 F1200
G1 X-20.047 Y-19.958 Z5.338 F1200
G1 X-20.104 Y-20.679 Z5.153 F1200
G1 X-20.161 Y-21.403 Z4.967 F1200
G1 X-20.219 Y-22.127 Z4.782 F1200
G1 X-20.276 Y-22.851 Z4.597 F1200
G1 X-20.333 Y-23.578 Z4.411 F1200
G1 X-20.391 Y-24.304 Z4.226 F1200
G1 X-20.448 Y-25.031 Z4.040 F1200
G1 X-20.506 Y-25.760 Z3.853 F1200
G1 X-20.564 Y-26.489 Z3.665 F1200
G1 X-20.622 Y-27.218 Z3.477 F1200
G1 X-20.680 Y-27.950 Z3.285 F1200
G1 X-20.738 Y-28.683 Z3.093 F1200
G1 X-20.796 Y-29.415 Z2.901 F1200
G1 X-20.854 Y-30.149 Z2.708 F1200
G1 X-20.913 Y-30.884 Z2.516 F1200
G1 X-20.971 Y-31.619 Z2.324 F1200
G1 X-21.029 Y-32.356 Z2.132 F1200
G1 X-21.088 Y-33.093 Z1.939 F1200
G1 X-21.146 Y-33.830 Z1.747 F1200
G1 X-20.416 Y-33.888 Z1.747 F1200
G1 X-19.686 Y-33.945 Z1.747 F1200
G1 X-18.956 Y-34.002 Z1.747 F1200
G1 X-18.226 Y-34.059 Z1.747 F1200
G1 X-17.495 Y-34.116 Z1.747 F1200
G1 X-16.765 Y-34.173 Z1.747 F1200
G1 X-16.035 Y-34.230 Z1.747 F1200
G1 X-15.305 Y-34.287 Z1.747 F1200
G1 X-14.575 Y-34.344 Z1.747 F1200
G1 X-13.844 Y-34.401 Z1.747 F1200
G1 X-13.114 Y-34.458 Z1.747 F1200
G1 X-12.384 Y-34.515 Z1.747 F1200
G1 X-11.654 Y-34.572 Z1.747 F1200
G1 X-10.923 Y-34.629 Z1.747 F1200
G1 X-10.193 Y-34.686 Z1.747 F1200
G1 X-9.463 Y-34.743 Z1.747 F1200
G1 X-8.733 Y-34.800 Z1.747 F1200
G1 X-8.002 Y-34.857 Z1.747 F1200
G1 X-7.272 Y-34.914 Z1.747 F1200
G1 X-6.542 Y-34.971 Z1.747 F1200
G1 X-5.812 Y-35.028 Z1.747 F1200
G1 X-5.081 Y-35.085 Z1.747 F1200
G1 X-4.351 Y-35.142 Z1.747 F1200
G1 X-3.621 Y-35.198 Z1.747 F1200
G1 X-2.891 Y-35.255 Z1.747 F1200
G1 X-2.161 Y-35.312 Z1.747 F1200
G1 X-1.430 Y-35.369 Z1.747 F1200
G1 X-0.700 Y-35.426 Z1.747 F1200
G1 X0.030 Y-35.483 Z1.747 F1200
G1 X0.760 Y-35.539 Z1.747 F1200
G1 X1.490 Y-35.596 Z1.747 F1200
G1 X2.220 Y-35.653 Z1.747 F1200
G1 X2.951 Y-35.710 Z1.747 F1200
G1 X3.681 Y-35.766 Z1.747 F1200
G1 X4.411 Y-35.823 Z1.747 F1200
G1 X5.141 Y-35.880 Z1.747 F1200
G1 X5.871 Y-35.937 Z1.747 F1200
G1 X6.601 Y-35.993 Z1.747 F1200
G1 X7.331 Y-36.050 Z1.747 F1200
G1 X8.061 Y-36.107 Z1.747 F1200
G1 X8.791 Y-36.163 Z1.747 F1200
G1 X9.521 Y-36.220 Z1.747 F1200
G1 X10.251 Y-36.277 Z1.747 F1200
G1 X10.981 Y-36.333 Z1.747 F1200
G1 X11.711 Y-36.390 Z1.747 F1200
G1 X12.441 Y-36.447 Z1.747 F1200
G1 X13.171 Y-36.503 Z1.747 F1200
G1 X13.900 Y-36.560 Z1.747 F1200
G1 X14.630 Y-36.616 Z1.747 F1200
G1 X15.360 Y-36.673 Z1.747 F1200
G1 X16.090 Y-36.730 Z1.747 F1200
G1 X16.820 Y-36.786 Z1.747 F1200
G1 X17.549 Y-36.843 Z1.747 F1200
G1 X18.279 Y-36.899 Z1.747 F1200
G1 X19.009 Y-36.956 Z1.747 F1200
G1 X19.738 Y-37.012 Z1.747 F1200
G1 X20.468 Y-37.069 Z1.747 F1200
G1 X21.197 Y-37.125 Z1.747 F1200
G1 X21.927 Y-37.182 Z1.747 F1200
G1 X22.656 Y-37.238 Z1.747 F1200
G1 X22.689 Y-36.499 Z1.939 F1200
G1 X22.721 Y-35.760 Z2.132 F1200
G1 X22.753 Y-35.021 Z2.324 F1200
G1 X22.785 Y-34.284 Z2.516 F1200
G1 X22.817 Y-33.548 Z2.708 F1200
G1 X22.849 Y-32.812 Z2.901 F1200
G1 X22.881 Y-32.078 Z3.093 F1200
G1 X22.913 Y-31.344 Z3.285 F1200
G1 X22.945 Y-30.610 Z3.477 F1200
G1 X22.977 Y-29.879 Z3.665 F1200
G1 X23.009 Y-29.148 Z3.853 F1200
G1 X23.041 Y-28.417 Z4.040 F1200
G1 X23.072 Y-27.689 Z4.226 F1200
G1 X23.104 Y-26.961 Z4.411 F1200
G1 X23.136 Y-26.232 Z4.597 F1200
G1 X23.168 Y-25.507 Z4.782 F1200
G1 X23.200 Y-24.781 Z4.967 F1200
G1 X23.232 Y-24.055 Z5.153 F1200
G1 X23.263 Y-23.332 Z5.338 F1200
G1 X23.295 Y-22.609 Z5.523 F1200
G1 X23.327 Y-21.886 Z5.709 F1200
G1 X23.358 Y-21.165 Z5.894 F1200
G1 X23.389 Y-20.444 Z6.080 F1200
G1 X23.421 Y-19.723 Z6.265 F1200
G1 X23.454 Y-19.006 Z6.431 F1200
G1 X23.486 Y-18.289 Z6.596 F1200
G1 X23.519 Y-17.572 Z6.762 F1200
G1 X23.552 Y-16.857 Z6.927 F1200
G1 X23.585 Y-16.143 Z7.092 F1200
G1 X23.617 Y-15.428 Z7.257 F1200
G1 X23.650 Y-14.715 Z7.421 F1200
G1 X23.682 Y-14.003 Z7.586 F1200
G1 X23.715 Y-13.290 Z7.751 F1200
G1 X23.749 Y-12.580 Z7.897 F1200
G1 X23.783 Y-11.871 Z8.043 F1200
G1 X23.817 Y-11.161 Z8.189 F1200
G1 X23.852 Y-10.454 Z8.322 F1200
G1 X23.886 Y-9.747 Z8.455 F1200
G1 X23.921 Y-9.040 Z8.588 F1200
G1 X23.956 Y-8.334 Z8.721 F1200
G1 X23.991 Y-7.629 Z8.854 F1200
G1 X24.025 Y-6.924 Z8.986 F1200
G1 X24.061 Y-6.221 Z9.102 F1200
G1 X24.097 Y-5.518 Z9.218 F1200
G1 X24.133 Y-4.814 Z9.333 F1200
G1 X24.170 Y-4.113 Z9.439 F1200
G1 X24.207 Y-3.412 Z9.545 F1200
G1 X24.243 Y-2.710 Z9.651 F1200
G1 X24.280 Y-2.010 Z9.753 F1200
G1 X24.317 Y-1.310 Z9.854 F1200
G1 X24.354 Y-0.610 Z9.956 F1200
G1 X24.393 Y0.088 Z10.031 F1200
G1 X24.432 Y0.786 Z10.106 F1200
G1 X24.471 Y1.485 Z10.182 F1200
G1 X24.510 Y2.182 Z10.257 F1200
G1 X24.549 Y2.880 Z10.332 F1200
G1 X24.588 Y3.577 Z10.408 F1200
G1 X24.629 Y4.273 Z10.465 F1200
G1 X24.669 Y4.970 Z10.523 F1200
G1 X24.709 Y5.666 Z10.580 F1200
G1 X24.751 Y6.362 Z10.623 F1200
G1 X24.793 Y7.058 Z10.665 F1200
G1 X24.834 Y7.754 Z10.708 F1200
G1 X24.876 Y8.449 Z10.750 F1200
G1 X24.917 Y9.145 Z10.793 F1200
G1 X24.959 Y9.840 Z10.835 F1200
G1 X25.002 Y10.535 Z10.857 F1200
G1 X25.045 Y11.230 Z10.879 F1200
G1 X25.089 Y11.926 Z10.901 F1200
G1 X25.133 Y12.621 Z10.910 F1200
G1 X25.177 Y13.316 Z10.919 F1200
G1 X25.222 Y14.012 Z10.927 F1200
G1 X25.266 Y14.707 Z10.936 F1200
G1 X25.310 Y15.402 Z10.945 F1200
G1 X25.355 Y16.097 Z10.954 F1200
G1 X25.402 Y16.793 Z10.930 F1200
G1 X25.449 Y17.490 Z10.906 F1200
G1 X25.496 Y18.186 Z10.882 F1200
G1 X25.544 Y18.883 Z10.856 F1200
G1 X25.591 Y19.580 Z10.831 F1200
G1 X25.638 Y20.277 Z10.806 F1200
G1 X25.686 Y20.974 Z10.769 F1200
G1 X25.735 Y21.672 Z10.731 F1200
G1 X25.783 Y22.370 Z10.694 F1200
G1 X25.834 Y23.070 Z10.632 F1200
G1 X25.884 Y23.770 Z10.570 F1200
G1 X25.935 Y24.469 Z10.508 F1200
G1 X25.986 Y25.170 Z10.446 F1200
G1 X26.036 Y25.870 Z10.384 F1200
G1 X26.087 Y26.571 Z10.322 F1200
G1 X26.140 Y27.274 Z10.233 F1200
G1 X26.193 Y27.978 Z10.144 F1200
G1 X26.246 Y28.681 Z10.055 F1200
G1 X26.300 Y29.387 Z9.957 F1200
G1 X26.354 Y30.092 Z9.859 F1200
G1 X26.408 Y30.797 Z9.760 F1200
G1 X26.462 Y31.504 Z9.657 F1200
G1 X26.517 Y32.211 Z9.554 F1200
G1 X26.571 Y32.918 Z9.451 F1200
G1 X26.629 Y33.630 Z9.309 F1200
G1 X26.687 Y34.342 Z9.168 F1200
G1 X26.745 Y35.054 Z9.027 F1200
G1 X26.803 Y35.768 Z8.884 F1200
G1 X26.861 Y36.482 Z8.741 F1200
G1 X26.920 Y37.196 Z8.598 F1200
M400
