; Surface constant-distance motion path
; Generated from STL height sampling. Dry-run before printing.
; Pattern: 矩形
; Clearance: 5.000 mm
; Motion: smoothed
; Points: 329
G21
G90
G1 X27.749 Y24.999 Z-15.051 F2400
G1 X25.624 Y25.166 Z-15.051 F1200
G1 X24.916 Y25.222 Z-15.051 F1200
G1 X24.207 Y25.278 Z-15.051 F1200
G1 X23.498 Y25.334 Z-15.051 F1200
G1 X22.790 Y25.389 Z-15.051 F1200
G1 X22.081 Y25.445 Z-15.051 F1200
G1 X21.373 Y25.501 Z-15.051 F1200
G1 X20.664 Y25.557 Z-15.051 F1200
G1 X19.955 Y25.613 Z-15.051 F1200
G1 X19.246 Y25.668 Z-15.051 F1200
G1 X18.538 Y25.724 Z-15.051 F1200
G1 X17.829 Y25.780 Z-15.051 F1200
G1 X17.120 Y25.836 Z-15.051 F1200
G1 X16.411 Y25.891 Z-15.051 F1200
G1 X15.702 Y25.947 Z-15.051 F1200
G1 X14.993 Y26.003 Z-15.051 F1200
G1 X14.285 Y26.058 Z-15.051 F1200
G1 X13.576 Y26.114 Z-15.051 F1200
G1 X12.867 Y26.170 Z-15.051 F1200
G1 X12.158 Y26.225 Z-15.051 F1200
G1 X11.449 Y26.281 Z-15.051 F1200
G1 X10.740 Y26.337 Z-15.051 F1200
G1 X10.031 Y26.392 Z-15.051 F1200
G1 X9.322 Y26.448 Z-15.051 F1200
G1 X8.613 Y26.504 Z-15.051 F1200
G1 X7.903 Y26.559 Z-15.051 F1200
G1 X7.194 Y26.615 Z-15.051 F1200
G1 X6.485 Y26.671 Z-15.051 F1200
G1 X5.776 Y26.726 Z-15.051 F1200
G1 X5.067 Y26.782 Z-15.051 F1200
G1 X4.358 Y26.837 Z-15.051 F1200
G1 X3.649 Y26.893 Z-15.051 F1200
G1 X2.939 Y26.949 Z-15.051 F1200
G1 X2.230 Y27.004 Z-15.051 F1200
G1 X1.521 Y27.060 Z-15.051 F1200
G1 X0.812 Y27.115 Z-15.051 F1200
G1 X0.103 Y27.171 Z-15.051 F1200
G1 X-0.607 Y27.226 Z-15.051 F1200
G1 X-1.316 Y27.282 Z-15.051 F1200
G1 X-2.025 Y27.337 Z-15.051 F1200
G1 X-2.734 Y27.393 Z-15.051 F1200
G1 X-3.444 Y27.448 Z-15.051 F1200
G1 X-4.153 Y27.504 Z-15.051 F1200
G1 X-4.862 Y27.559 Z-15.051 F1200
G1 X-5.571 Y27.615 Z-15.051 F1200
G1 X-6.281 Y27.670 Z-15.051 F1200
G1 X-6.990 Y27.725 Z-15.051 F1200
G1 X-7.699 Y27.781 Z-15.051 F1200
G1 X-8.408 Y27.836 Z-15.051 F1200
G1 X-9.118 Y27.892 Z-15.051 F1200
G1 X-9.827 Y27.947 Z-15.051 F1200
G1 X-10.536 Y28.002 Z-15.051 F1200
G1 X-11.245 Y28.058 Z-15.051 F1200
G1 X-11.955 Y28.113 Z-15.051 F1200
G1 X-12.664 Y28.168 Z-15.051 F1200
G1 X-13.373 Y28.224 Z-15.051 F1200
G1 X-14.082 Y28.279 Z-15.051 F1200
G1 X-14.792 Y28.334 Z-15.051 F1200
G1 X-14.836 Y27.634 Z-14.989 F1200
G1 X-14.880 Y26.933 Z-14.927 F1200
G1 X-14.924 Y26.232 Z-14.865 F1200
G1 X-14.969 Y25.533 Z-14.816 F1200
G1 X-15.013 Y24.833 Z-14.767 F1200
G1 X-15.058 Y24.134 Z-14.718 F1200
G1 X-15.104 Y23.437 Z-14.693 F1200
G1 X-15.149 Y22.740 Z-14.667 F1200
G1 X-15.195 Y22.042 Z-14.642 F1200
G1 X-15.240 Y21.345 Z-14.617 F1200
G1 X-15.286 Y20.648 Z-14.592 F1200
G1 X-15.331 Y19.951 Z-14.567 F1200
G1 X-15.378 Y19.256 Z-14.566 F1200
G1 X-15.424 Y18.560 Z-14.565 F1200
G1 X-15.471 Y17.864 Z-14.564 F1200
G1 X-15.517 Y17.169 Z-14.573 F1200
G1 X-15.564 Y16.474 Z-14.582 F1200
G1 X-15.611 Y15.778 Z-14.591 F1200
G1 X-15.658 Y15.083 Z-14.602 F1200
G1 X-15.705 Y14.387 Z-14.613 F1200
G1 X-15.752 Y13.692 Z-14.625 F1200
G1 X-15.800 Y12.997 Z-14.667 F1200
G1 X-15.849 Y12.302 Z-14.709 F1200
G1 X-15.897 Y11.608 Z-14.752 F1200
G1 X-15.945 Y10.912 Z-14.794 F1200
G1 X-15.993 Y10.217 Z-14.837 F1200
G1 X-16.042 Y9.521 Z-14.879 F1200
G1 X-16.090 Y8.825 Z-14.926 F1200
G1 X-16.139 Y8.129 Z-14.973 F1200
G1 X-16.187 Y7.433 Z-15.020 F1200
G1 X-16.237 Y6.736 Z-15.096 F1200
G1 X-16.287 Y6.040 Z-15.171 F1200
G1 X-16.337 Y5.344 Z-15.246 F1200
G1 X-16.386 Y4.646 Z-15.322 F1200
G1 X-16.436 Y3.948 Z-15.397 F1200
G1 X-16.486 Y3.251 Z-15.472 F1200
G1 X-16.537 Y2.552 Z-15.564 F1200
G1 X-16.587 Y1.854 Z-15.656 F1200
G1 X-16.638 Y1.155 Z-15.747 F1200
G1 X-16.689 Y0.455 Z-15.853 F1200
G1 X-16.741 Y-0.245 Z-15.959 F1200
G1 X-16.792 Y-0.945 Z-16.065 F1200
G1 X-16.843 Y-1.647 Z-16.173 F1200
G1 X-16.895 Y-2.349 Z-16.280 F1200
G1 X-16.946 Y-3.050 Z-16.387 F1200
G1 X-16.999 Y-3.754 Z-16.520 F1200
G1 X-17.052 Y-4.457 Z-16.652 F1200
G1 X-17.104 Y-5.161 Z-16.785 F1200
G1 X-17.157 Y-5.867 Z-16.918 F1200
G1 X-17.210 Y-6.572 Z-17.051 F1200
G1 X-17.263 Y-7.277 Z-17.184 F1200
G1 X-17.316 Y-7.985 Z-17.320 F1200
G1 X-17.369 Y-8.692 Z-17.456 F1200
G1 X-17.422 Y-9.400 Z-17.591 F1200
G1 X-17.477 Y-10.110 Z-17.756 F1200
G1 X-17.531 Y-10.820 Z-17.921 F1200
G1 X-17.586 Y-11.531 Z-18.086 F1200
G1 X-17.640 Y-12.244 Z-18.251 F1200
G1 X-17.695 Y-12.956 Z-18.416 F1200
G1 X-17.750 Y-13.669 Z-18.581 F1200
G1 X-17.805 Y-14.384 Z-18.746 F1200
G1 X-17.859 Y-15.099 Z-18.911 F1200
G1 X-17.914 Y-15.814 Z-19.075 F1200
G1 X-17.970 Y-16.532 Z-19.255 F1200
G1 X-18.025 Y-17.250 Z-19.435 F1200
G1 X-18.081 Y-17.968 Z-19.614 F1200
G1 X-18.137 Y-18.689 Z-19.800 F1200
G1 X-18.193 Y-19.409 Z-19.985 F1200
G1 X-18.249 Y-20.130 Z-20.170 F1200
G1 X-18.305 Y-20.854 Z-20.356 F1200
G1 X-18.362 Y-21.577 Z-20.541 F1200
G1 X-18.418 Y-22.300 Z-20.726 F1200
G1 X-18.474 Y-23.026 Z-20.912 F1200
G1 X-18.531 Y-23.752 Z-21.097 F1200
G1 X-18.587 Y-24.478 Z-21.283 F1200
G1 X-18.644 Y-25.206 Z-21.468 F1200
G1 X-18.700 Y-25.934 Z-21.654 F1200
G1 X-18.757 Y-26.662 Z-21.839 F1200
G1 X-18.814 Y-27.394 Z-22.031 F1200
G1 X-18.871 Y-28.125 Z-22.224 F1200
G1 X-18.928 Y-28.857 Z-22.416 F1200
G1 X-18.985 Y-29.591 Z-22.608 F1200
G1 X-19.042 Y-30.325 Z-22.800 F1200
G1 X-19.099 Y-31.059 Z-22.993 F1200
G1 X-19.156 Y-31.795 Z-23.185 F1200
G1 X-19.214 Y-32.532 Z-23.377 F1200
G1 X-19.271 Y-33.268 Z-23.569 F1200
G1 X-19.329 Y-34.007 Z-23.762 F1200
G1 X-19.386 Y-34.746 Z-23.954 F1200
G1 X-19.444 Y-35.485 Z-24.146 F1200
G1 X-19.501 Y-36.227 Z-24.338 F1200
G1 X-19.559 Y-36.969 Z-24.530 F1200
G1 X-19.617 Y-37.710 Z-24.723 F1200
G1 X-19.674 Y-38.454 Z-24.915 F1200
G1 X-19.732 Y-39.199 Z-25.107 F1200
G1 X-19.790 Y-39.943 Z-25.299 F1200
G1 X-19.848 Y-40.690 Z-25.494 F1200
G1 X-19.906 Y-41.437 Z-25.689 F1200
G1 X-19.964 Y-42.184 Z-25.884 F1200
G1 X-20.023 Y-42.934 Z-26.080 F1200
G1 X-20.081 Y-43.684 Z-26.277 F1200
G1 X-20.139 Y-44.433 Z-26.473 F1200
G1 X-20.198 Y-45.186 Z-26.669 F1200
G1 X-20.256 Y-45.938 Z-26.865 F1200
G1 X-20.315 Y-46.690 Z-27.061 F1200
G1 X-19.577 Y-46.748 Z-27.061 F1200
G1 X-18.839 Y-46.806 Z-27.061 F1200
G1 X-18.102 Y-46.863 Z-27.061 F1200
G1 X-17.364 Y-46.921 Z-27.061 F1200
G1 X-16.626 Y-46.979 Z-27.061 F1200
G1 X-15.888 Y-47.036 Z-27.061 F1200
G1 X-15.151 Y-47.094 Z-27.061 F1200
G1 X-14.413 Y-47.152 Z-27.061 F1200
G1 X-13.675 Y-47.209 Z-27.061 F1200
G1 X-12.937 Y-47.267 Z-27.061 F1200
G1 X-12.200 Y-47.324 Z-27.061 F1200
G1 X-11.462 Y-47.382 Z-27.061 F1200
G1 X-10.724 Y-47.439 Z-27.061 F1200
G1 X-9.987 Y-47.497 Z-27.061 F1200
G1 X-9.249 Y-47.554 Z-27.061 F1200
G1 X-8.511 Y-47.612 Z-27.061 F1200
G1 X-7.773 Y-47.669 Z-27.061 F1200
G1 X-7.036 Y-47.727 Z-27.061 F1200
G1 X-6.298 Y-47.784 Z-27.061 F1200
G1 X-5.560 Y-47.842 Z-27.061 F1200
G1 X-4.822 Y-47.899 Z-27.061 F1200
G1 X-4.085 Y-47.956 Z-27.061 F1200
G1 X-3.347 Y-48.014 Z-27.061 F1200
G1 X-2.609 Y-48.071 Z-27.061 F1200
G1 X-1.872 Y-48.129 Z-27.061 F1200
G1 X-1.134 Y-48.186 Z-27.061 F1200
G1 X-0.396 Y-48.243 Z-27.061 F1200
G1 X0.341 Y-48.300 Z-27.061 F1200
G1 X1.079 Y-48.358 Z-27.061 F1200
G1 X1.817 Y-48.415 Z-27.061 F1200
G1 X2.554 Y-48.472 Z-27.061 F1200
G1 X3.292 Y-48.530 Z-27.061 F1200
G1 X4.029 Y-48.587 Z-27.061 F1200
G1 X4.767 Y-48.644 Z-27.061 F1200
G1 X5.505 Y-48.701 Z-27.061 F1200
G1 X6.242 Y-48.758 Z-27.061 F1200
G1 X6.980 Y-48.815 Z-27.061 F1200
G1 X7.717 Y-48.873 Z-27.061 F1200
G1 X8.455 Y-48.930 Z-27.061 F1200
G1 X9.192 Y-48.987 Z-27.061 F1200
G1 X9.929 Y-49.044 Z-27.061 F1200
G1 X10.667 Y-49.101 Z-27.061 F1200
G1 X11.404 Y-49.158 Z-27.061 F1200
G1 X12.142 Y-49.215 Z-27.061 F1200
G1 X12.879 Y-49.272 Z-27.061 F1200
G1 X13.616 Y-49.329 Z-27.061 F1200
G1 X14.354 Y-49.386 Z-27.061 F1200
G1 X15.091 Y-49.443 Z-27.061 F1200
G1 X15.828 Y-49.500 Z-27.061 F1200
G1 X16.566 Y-49.557 Z-27.061 F1200
G1 X17.303 Y-49.614 Z-27.061 F1200
G1 X18.040 Y-49.671 Z-27.061 F1200
G1 X18.777 Y-49.728 Z-27.061 F1200
G1 X19.514 Y-49.785 Z-27.061 F1200
G1 X20.251 Y-49.842 Z-27.061 F1200
G1 X20.988 Y-49.899 Z-27.061 F1200
G1 X21.725 Y-49.955 Z-27.061 F1200
G1 X22.462 Y-50.012 Z-27.061 F1200
G1 X23.199 Y-50.069 Z-27.061 F1200
G1 X23.936 Y-50.126 Z-27.061 F1200
G1 X23.968 Y-49.372 Z-26.865 F1200
G1 X24.000 Y-48.618 Z-26.669 F1200
G1 X24.032 Y-47.864 Z-26.473 F1200
G1 X24.064 Y-47.112 Z-26.277 F1200
G1 X24.095 Y-46.360 Z-26.080 F1200
G1 X24.127 Y-45.609 Z-25.884 F1200
G1 X24.159 Y-44.860 Z-25.689 F1200
G1 X24.190 Y-44.111 Z-25.494 F1200
G1 X24.222 Y-43.362 Z-25.299 F1200
G1 X24.254 Y-42.617 Z-25.107 F1200
G1 X24.285 Y-41.871 Z-24.915 F1200
G1 X24.317 Y-41.125 Z-24.723 F1200
G1 X24.348 Y-40.381 Z-24.530 F1200
G1 X24.380 Y-39.638 Z-24.338 F1200
G1 X24.411 Y-38.895 Z-24.146 F1200
G1 X24.442 Y-38.154 Z-23.954 F1200
G1 X24.474 Y-37.413 Z-23.762 F1200
G1 X24.505 Y-36.672 Z-23.569 F1200
G1 X24.536 Y-35.934 Z-23.377 F1200
G1 X24.567 Y-35.196 Z-23.185 F1200
G1 X24.598 Y-34.458 Z-22.993 F1200
G1 X24.629 Y-33.722 Z-22.800 F1200
G1 X24.660 Y-32.986 Z-22.608 F1200
G1 X24.691 Y-32.250 Z-22.416 F1200
G1 X24.721 Y-31.517 Z-22.224 F1200
G1 X24.752 Y-30.784 Z-22.031 F1200
G1 X24.783 Y-30.051 Z-21.839 F1200
G1 X24.814 Y-29.321 Z-21.654 F1200
G1 X24.845 Y-28.591 Z-21.468 F1200
G1 X24.876 Y-27.861 Z-21.283 F1200
G1 X24.906 Y-27.134 Z-21.097 F1200
G1 X24.937 Y-26.406 Z-20.912 F1200
G1 X24.968 Y-25.679 Z-20.726 F1200
G1 X24.999 Y-24.954 Z-20.541 F1200
G1 X25.030 Y-24.229 Z-20.356 F1200
G1 X25.060 Y-23.504 Z-20.170 F1200
G1 X25.091 Y-22.781 Z-19.985 F1200
G1 X25.121 Y-22.059 Z-19.800 F1200
G1 X25.152 Y-21.336 Z-19.614 F1200
G1 X25.182 Y-20.617 Z-19.435 F1200
G1 X25.213 Y-19.897 Z-19.255 F1200
G1 X25.244 Y-19.177 Z-19.075 F1200
G1 X25.276 Y-18.461 Z-18.911 F1200
G1 X25.308 Y-17.745 Z-18.746 F1200
G1 X25.339 Y-17.028 Z-18.581 F1200
G1 X25.371 Y-16.314 Z-18.416 F1200
G1 X25.403 Y-15.600 Z-18.251 F1200
G1 X25.435 Y-14.886 Z-18.086 F1200
G1 X25.466 Y-14.174 Z-17.921 F1200
G1 X25.498 Y-13.462 Z-17.756 F1200
G1 X25.529 Y-12.750 Z-17.591 F1200
G1 X25.563 Y-12.042 Z-17.456 F1200
G1 X25.597 Y-11.333 Z-17.320 F1200
G1 X25.631 Y-10.625 Z-17.184 F1200
G1 X25.665 Y-9.918 Z-17.051 F1200
G1 X25.699 Y-9.211 Z-16.918 F1200
G1 X25.733 Y-8.505 Z-16.785 F1200
G1 X25.767 Y-7.800 Z-16.652 F1200
G1 X25.801 Y-7.095 Z-16.520 F1200
G1 X25.835 Y-6.390 Z-16.387 F1200
G1 X25.871 Y-5.688 Z-16.280 F1200
G1 X25.907 Y-4.985 Z-16.173 F1200
G1 X25.943 Y-4.283 Z-16.065 F1200
G1 X25.979 Y-3.582 Z-15.959 F1200
G1 X26.015 Y-2.881 Z-15.853 F1200
G1 X26.051 Y-2.180 Z-15.747 F1200
G1 X26.088 Y-1.481 Z-15.656 F1200
G1 X26.125 Y-0.781 Z-15.564 F1200
G1 X26.162 Y-0.082 Z-15.472 F1200
G1 X26.201 Y0.616 Z-15.397 F1200
G1 X26.239 Y1.314 Z-15.322 F1200
G1 X26.278 Y2.012 Z-15.246 F1200
G1 X26.316 Y2.709 Z-15.171 F1200
G1 X26.355 Y3.406 Z-15.096 F1200
G1 X26.393 Y4.104 Z-15.020 F1200
G1 X26.434 Y4.800 Z-14.973 F1200
G1 X26.475 Y5.496 Z-14.926 F1200
G1 X26.516 Y6.193 Z-14.879 F1200
G1 X26.557 Y6.888 Z-14.837 F1200
G1 X26.599 Y7.584 Z-14.794 F1200
G1 X26.640 Y8.280 Z-14.752 F1200
G1 X26.681 Y8.975 Z-14.709 F1200
G1 X26.722 Y9.670 Z-14.667 F1200
G1 X26.764 Y10.365 Z-14.625 F1200
G1 X26.808 Y11.060 Z-14.613 F1200
G1 X26.852 Y11.755 Z-14.602 F1200
G1 X26.896 Y12.451 Z-14.591 F1200
G1 X26.940 Y13.146 Z-14.582 F1200
G1 X26.984 Y13.841 Z-14.573 F1200
G1 X27.029 Y14.536 Z-14.564 F1200
G1 X27.074 Y15.232 Z-14.565 F1200
G1 X27.119 Y15.927 Z-14.566 F1200
G1 X27.164 Y16.623 Z-14.567 F1200
G1 X27.211 Y17.319 Z-14.592 F1200
G1 X27.259 Y18.016 Z-14.617 F1200
G1 X27.306 Y18.713 Z-14.642 F1200
G1 X27.353 Y19.409 Z-14.667 F1200
G1 X27.401 Y20.106 Z-14.693 F1200
G1 X27.448 Y20.803 Z-14.718 F1200
G1 X27.498 Y21.501 Z-14.767 F1200
G1 X27.547 Y22.200 Z-14.816 F1200
G1 X27.597 Y22.899 Z-14.865 F1200
G1 X27.648 Y23.599 Z-14.927 F1200
G1 X27.699 Y24.299 Z-14.989 F1200
G1 X27.749 Y24.999 Z-15.051 F1200
M400
